STARLINK-37016
1 68288U 26055AC  26092.83335647 -.01604880  00000+0 -86464-2 0  9996
2 68288  53.1579 216.0899 0001032  58.5790 276.0748 15.82432884  3517
